GLOBALSTAR M062 [-]     
1 26082U 00008B   23321.07575764 -.00000035  00000+0  44910-3 0  9997
2 26082  51.9870 355.7692 0006667 319.1662  57.4456 12.43420829 87203
GLOBALSTAR M060 [-]     
1 26083U 00008C   23321.18393831  .00000118  00000+0  20824-2 0  9991
2 26083  52.0017 233.6889 0004369  37.4269 110.9325 12.17620369 82129
GLOBALSTAR M064 [-]     
1 26084U 00008D   23321.12214125 -.00000072  00000+0  15599-3 0  9998
2 26084  52.0038 299.6019 0001900  29.8011 330.2929 11.88511682 98474
GLOBALSTAR M065 [+]     
1 31571U 07020A   23321.07332865 -.00000072  00000+0  17715-3 0  9994
2 31571  51.9878 185.7795 0010826 106.1531  58.1289 12.61958074760721
GLOBALSTAR M069 [+]     
1 31573U 07020C   23320.76859137 -.00000098  00000+0  29734-4 0  9990
2 31573  51.9926 142.8089 0001338  96.2403 276.9149 12.62260909761508
